{
  "norad_id": 64431,
  "name": "STARLINK-34524",
  "history": [
    {
      "epoch": "2026-03-28T21:06:59.880672Z",
      "apogee_km": 573.9283229307312,
      "perigee_km": 570.1440926225614,
      "latitude_deg": -1.9805871621803014e-05,
      "longitude_deg": -117.04627520982109,
      "height_km": 574.5168826058413,
      "semi_major_axis_km": 6950.173207776646,
      "eccentricity": 0.00027224,
      "inclination_deg": 70.0024,
      "raan_deg": 25.9972,
      "arg_perigee_deg": 268.3854,
      "mean_anomaly_deg": 91.6993,
      "mean_motion_rev_day": 14.98336365
    },
    {
      "epoch": "2026-03-29T05:07:40.210176Z",
      "apogee_km": 573.695337480257,
      "perigee_km": 570.3217368365194,
      "latitude_deg": 6.408730792819645e-06,
      "longitude_deg": 121.61568633826136,
      "height_km": 574.4412252933378,
      "semi_major_axis_km": 6950.145537158388,
      "eccentricity": 0.0002427,
      "inclination_deg": 70.0026,
      "raan_deg": 25.1562,
      "arg_perigee_deg": 269.8091,
      "mean_anomaly_deg": 90.279,
      "mean_motion_rev_day": 14.98345313
    },
    {
      "epoch": "2026-03-30T01:57:25.011936Z",
      "apogee_km": 573.9807307155143,
      "perigee_km": 570.1011413916103,
      "latitude_deg": -5.1790440786694786e-05,
      "longitude_deg": 166.13457055111007,
      "height_km": 574.5539617682629,
      "semi_major_axis_km": 6950.177936053562,
      "eccentricity": 0.0002791,
      "inclination_deg": 70.0031,
      "raan_deg": 22.9672,
      "arg_perigee_deg": 267.4726,
      "mean_anomaly_deg": 92.6113,
      "mean_motion_rev_day": 14.98334836
    },
    {
      "epoch": "2026-03-30T05:09:41.168448Z",
      "apogee_km": 574.0397978415267,
      "perigee_km": 570.0396931174346,
      "latitude_deg": -4.217303417508214e-05,
      "longitude_deg": 117.59915174345907,
      "height_km": 574.5279658396202,
      "semi_major_axis_km": 6950.176745479481,
      "eccentricity": 0.00028777,
      "inclination_deg": 70.0029,
      "raan_deg": 22.6307,
      "arg_perigee_deg": 268.2619,
      "mean_anomaly_deg": 91.821,
      "mean_motion_rev_day": 14.98335221
    },
    {
      "epoch": "2026-03-30T13:10:21.538560Z",
      "apogee_km": 574.00496615263,
      "perigee_km": 570.0782542414399,
      "latitude_deg": 5.606814465322271e-05,
      "longitude_deg": -3.740129980199293,
      "height_km": 574.5081990604959,
      "semi_major_axis_km": 6950.178610197035,
      "eccentricity": 0.00028249,
      "inclination_deg": 70.0034,
      "raan_deg": 21.7886,
      "arg_perigee_deg": 268.86,
      "mean_anomaly_deg": 91.2236,
      "mean_motion_rev_day": 14.98334618
    },
    {
      "epoch": "2026-03-30T21:11:01.822272Z",
      "apogee_km": 573.9841642380507,
      "perigee_km": 570.0778917995822,
      "latitude_deg": 5.6582819532659876e-05,
      "longitude_deg": -125.07818608693596,
      "height_km": 574.5511830847677,
      "semi_major_axis_km": 6950.168028018816,
      "eccentricity": 0.00028102,
      "inclination_deg": 70.003,
      "raan_deg": 20.9474,
      "arg_perigee_deg": 267.2807,
      "mean_anomaly_deg": 92.8031,
      "mean_motion_rev_day": 14.9833804
    },
    {
      "epoch": "2026-03-31T21:13:02.892000Z",
      "apogee_km": 573.9657432927697,
      "perigee_km": 570.0986691464295,
      "latitude_deg": -3.091990446766043e-05,
      "longitude_deg": -129.09329971054802,
      "height_km": 574.4989022240189,
      "semi_major_axis_km": 6950.1692062196,
      "eccentricity": 0.0002782,
      "inclination_deg": 70.0035,
      "raan_deg": 18.4238,
      "arg_perigee_deg": 268.8385,
      "mean_anomaly_deg": 91.2455,
      "mean_motion_rev_day": 14.98337659
    },
    {
      "epoch": "2026-04-01T21:15:04.633920Z",
      "apogee_km": 573.6148444334476,
      "perigee_km": 570.5623053609525,
      "latitude_deg": -5.6753494161990174e-05,
      "longitude_deg": -133.10739960264624,
      "height_km": 575.0520059533073,
      "semi_major_axis_km": 6950.225574897199,
      "eccentricity": 0.0002196,
      "inclination_deg": 70.0058,
      "raan_deg": 15.904,
      "arg_perigee_deg": 249.4209,
      "mean_anomaly_deg": 110.6714,
      "mean_motion_rev_day": 14.98319431
    },
    {
      "epoch": "2026-04-02T21:17:06.141696Z",
      "apogee_km": 573.9248416201872,
      "perigee_km": 570.075855556538,
      "latitude_deg": 9.605807803151578e-06,
      "longitude_deg": -137.13018835706612,
      "height_km": 574.3660172508356,
      "semi_major_axis_km": 6950.137348588362,
      "eccentricity": 0.0002769,
      "inclination_deg": 70.0038,
      "raan_deg": 13.3745,
      "arg_perigee_deg": 271.8412,
      "mean_anomaly_deg": 88.243,
      "mean_motion_rev_day": 14.98347961
    }
  ]
}